STARLINK-1894
1 26744C 20074F   21325.16790848  .00003693  00000-0  24741-3 0  3259
2 26744  53.0508 167.4718 0002059  70.8736 238.9655 15.06397598    11
